1 27424U 02022A   09278.89592032  .00000020  00000-0  14420-4 0  4508
2 27424 098.1876 219.2735 0001318 103.3034 256.8325 14.57121926394887